DTC TEST OBJECT A       
1 69472U 26128A   26189.76130142  .00006782  00000+0  11225-3 0  9993
2 69472  55.0004 205.4643 0010967 354.4875   5.6037 15.53460132  4585
DTC TEST OBJECT B       
1 69473U 26128B   26178.37654890  .00024134  00000+0  33565-3 0  9992
2 69473  55.0021 257.9040 0009934 325.3113  34.7274 15.56860342  2801
TJS-25                  
1 69474U 26129A   26190.30743966 -.00000355  00000+0  00000+0 0  9998
2 69474   5.9604 330.3063 0003123 281.7412 266.0500  1.00266258   287
STARLINK-37816          
1 69478U 26131A   26190.25002315 -.02417495  00000+0 -28683-1 0  9994
2 69478  97.2850 211.7712 0001331  68.8149  25.9583 15.64531845  5551
STARLINK-37878          
1 69479U 26131B   26190.25002315 -.00785077  00000+0 -71583-2 0  9995
2 69479  97.2848 211.7778 0001268  64.5042  51.3337 15.70110012  4415
STARLINK-37817          
1 69480U 26131C   26190.28517367 -.00293966  00000+0 -22564-2 0  9994
2 69480  97.2840 211.8355 0001456 359.4413   0.6849 15.72823670  5653
STARLINK-37727          
1 69481U 26131D   26190.25002315 -.02471588  00000+0 -29939-1 0  9996
2 69481  97.2852 211.7756 0001517  65.3872  39.0912 15.64088833  5552
STARLINK-37814          
1 69482U 26131E   26190.25002315 -.00796761  00000+0 -72826-2 0  9992
2 69482  97.2845 211.7967 0001294  69.5825  93.0796 15.70084984  5555
STARLINK-37869          
1 69483U 26131F   26190.25002315 -.00791186  00000+0 -82893-2 0  9994
2 69483  97.2844 211.7882 0001191  75.4357  67.7381 15.66744175  5551
STARLINK-37873          
1 69484U 26131G   26190.25002315 -.01510492  00000+0 -14760-1 0  9992
2 69484  97.2843 211.7944 0001617  75.4268  82.3431 15.68856320  5551
STARLINK-37892          
1 69485U 26131H   26190.25002315 -.02903573  00000+0 -27041-1 0  9996
2 69485  97.2841 211.8055 0002250  71.0810 112.2047 15.71133418  5559
STARLINK-37893          
1 69486U 26131J   26189.90017085 -.01161980  00000+0 -10003-1 0  9994
2 69486  97.2848 211.4402 0001198  25.0899 335.0422 15.72064893  5592
STARLINK-37842          
1 69487U 26131K   26190.25002315 -.00803127  00000+0 -82656-2 0  9994
2 69487  97.2843 211.7906 0001263  77.8133  69.8515 15.67219669  5557
STARLINK-37449          
1 69488U 26131L   26190.25002315 -.02648922  00000+0 -24291-1 0  9997
2 69488  97.2842 211.8109 0001699  84.7822 111.1877 15.71138736  5640
STARLINK-37831          
1 69489U 26131M   26190.25002315 -.01221832  00000+0 -14610-1 0  9998
2 69489  97.2843 211.7823 0000994  69.0407  56.7967 15.63721493  4198
STARLINK-37879          
1 69490U 26131N   26190.25002315 -.02629875  00000+0 -26853-1 0  9992
2 69490  97.2845 211.8006 0001875  84.5874  85.1374 15.68536918  5555
STARLINK-37856          
1 69491U 26131P   26190.25002315 -.02556599  00000+0 -25732-1 0  9990
2 69491  97.2841 211.7887 0001847  79.7401  64.5224 15.68779522  5611
STARLINK-37568          
1 69492U 26131Q   26190.25002315 -.02450235  00000+0 -27976-1 0  9993
2 69492  97.2843 211.8031 0001775  72.3941  93.9595 15.65534298  5640
STARLINK-37855          
1 69493U 26131R   26190.25002315 -.02591896  00000+0 -18470-1 0  9992
2 69493  97.2843 211.8148 0002040  81.5533 122.7331 15.77481596  5616
STARLINK-37854          
1 69494U 26131S   26190.25002315 -.02635556  00000+0 -22803-1 0  9990
2 69494  97.2842 211.8034 0001754  84.3147  93.3098 15.72488103  5612
STARLINK-37789          
1 69495U 26131T   26190.25002315 -.02513909  00000+0 -26450-1 0  9990
2 69495  97.2846 211.8117 0001709  92.1527 106.4551 15.67642660  5634
STARLINK-37839          
1 69496U 26131U   26190.25002315 -.02569733  00000+0 -25306-1 0  9996
2 69496  97.2841 211.8014 0001778  86.2532  86.9548 15.69325236  5617
STARLINK-37798          
1 69497U 26131V   26190.25002315 -.02545736  00000+0 -26650-1 0  9997
2 69497  97.2845 211.8150 0001760  93.7445 111.1730 15.67810968  5613
STARLINK-37853          
1 69498U 26131W   26190.25002315 -.00673969  00000+0 -47980-2 0  9996
2 69498  97.2844 211.8465 0001391  76.5238 197.3763 15.75599491  5617
STARLINK-37849          
1 69499U 26131X   26190.25002315 -.02517943  00000+0 -30209-1 0  9993
2 69499  97.2852 211.8124 0001908  77.3431 113.2276 15.64395153  5632
STARLINK-37835          
1 69500U 26131Y   26190.25002315 -.02457217  00000+0 -28498-1 0  9990
2 69500  97.2846 211.8116 0001968  80.8263 106.9938 15.65151891  4528
STARLINK-37843          
1 69501U 26131Z   26190.25002315 -.02459087  00000+0 -29985-1 0  9990
2 69501  97.2848 211.8079 0001877  71.6409 106.7274 15.63899468  5617
STARS-X                 
1 69502U 26132A   26190.11581762  .00001256  00000+0  10807-3 0  9997
2 69502  97.6882 253.5001 0013998 186.7709 173.3327 14.99096932  4066
PETREL                  
1 69503U 26132B   26189.91402966  .00001010  00000+0  87718-4 0  9996
2 69503  97.6911 253.3149 0013871 189.4627 170.6337 14.99175361  4032
BRO-22                  
1 69504U 26132C   26189.90289229  .00000787  00000+0  68330-4 0  9990
2 69504  97.6833 253.3050 0015884 203.7127 156.3366 14.99794916  4034
